{
    "links": {
        "self": "http://www.neowsapp.com/rest/v1/neo/3174214?api_key=iIulBulltgU6a56xZRHN4H3l9WmuAYTsLGpBGhQ2"
    },
    "id": "3174214",
    "neo_reference_id": "3174214",
    "name": "(2004 CQ)",
    "designation": "2004 CQ",
    "nasa_jpl_url": "http://ssd.jpl.nasa.gov/sbdb.cgi?sstr=3174214",
    "absolute_magnitude_h": 24.7,
    "estimated_diameter": {
        "kilometers": {
            "estimated_diameter_min": 0.0305179233,
            "estimated_diameter_max": 0.0682401509
        },
        "meters": {
            "estimated_diameter_min": 30.5179232594,
            "estimated_diameter_max": 68.2401509401
        },
        "miles": {
            "estimated_diameter_min": 0.0189629525,
            "estimated_diameter_max": 0.0424024508
        },
        "feet": {
            "estimated_diameter_min": 100.1244233463,
            "estimated_diameter_max": 223.8850168104
        }
    },
    "is_potentially_hazardous_asteroid": false,
    "close_approach_data": [
        {
            "close_approach_date": "2004-02-14",
            "close_approach_date_full": "2004-Feb-14 15:43",
            "epoch_date_close_approach": 1076773380000,
            "relative_velocity": {
                "kilometers_per_second": "6.8686756154",
                "kilometers_per_hour": "24727.2322154552",
                "miles_per_hour": "15364.5404840977"
            },
            "miss_distance": {
                "astronomical": "0.0400448898",
                "lunar": "15.5774621322",
                "kilometers": "5990630.218464726",
                "miles": "3722405.0075401788"
            },
            "orbiting_body": "Earth"
        }
    ],
    "orbital_data": {
        "orbit_id": "13",
        "orbit_determination_date": "2017-04-06 09:13:13",
        "first_observation_date": "2004-02-10",
        "last_observation_date": "2004-02-26",
        "data_arc_in_days": 16,
        "observations_used": 77,
        "orbit_uncertainty": "8",
        "minimum_orbit_intersection": ".040045",
        "jupiter_tisserand_invariant": "3.638",
        "epoch_osculation": "2453049.5",
        "eccentricity": ".4950129522497569",
        "semi_major_axis": "2.033761362852767",
        "inclination": "6.413814475876639",
        "ascending_node_longitude": "322.0934592666113",
        "orbital_period": "1059.371818161452",
        "perihelion_distance": "1.02702314645553",
        "perihelion_argument": "184.1812342323994",
        "aphelion_distance": "3.040499579250004",
        "perihelion_time": "2453051.059374641756",
        "mean_anomaly": "359.4700870257183",
        "mean_motion": ".3398240295128701",
        "equinox": "J2000",
        "orbit_class": {
            "orbit_class_type": "AMO",
            "orbit_class_description": "Near-Earth asteroid orbits similar to that of 1221 Amor",
            "orbit_class_range": "1.017 AU < q (perihelion) < 1.3 AU"
        }
    },
    "is_sentry_object": false
}